<?xml version="1.0" encoding="utf-8"?>
<gpx creator="Garmin Explore App" version="1.1" xmlns:adv="http://www.garmin.com/xmlschemas/AdventuresExtensions/v1" xmlns:gpxtpx="http://www.garmin.com/xmlschemas/TrackPointExtension/v1" xmlns:gpxtrx="http://www.garmin.com/xmlschemas/GpxExtensions/v3" xmlns:gpxx="http://www.garmin.com/xmlschemas/GpxExtensions/v3" xmlns:trp="http://www.garmin.com/xmlschemas/TripExtensions/v1" xmlns:wptx1="http://www.garmin.com/xmlschemas/WaypointExtension/v1" xmlns:xsi="http://www.w3.org/2001/XMLSchema-instance" xmlns="http://www.topografix.com/GPX/1/1" xsi:schemaLocation="http://www.topografix.com/GPX/1/1 http://www.topografix.com/GPX/1/1/gpx.xsd http://www.garmin.com/xmlschemas/WaypointExtension/v1 http://www8.garmin.com/xmlschemas/WaypointExtensionv1.xsd http://www.garmin.com/xmlschemas/TrackPointExtension/v1 http://www.garmin.com/xmlschemas/TrackPointExtensionv1.xsd http://www.garmin.com/xmlschemas/GpxExtensions/v3 http://www8.garmin.com/xmlschemas/GpxExtensionsv3.xsd http://www.garmin.com/xmlschemas/ActivityExtension/v1 http://www8.garmin.com/xmlschemas/ActivityExtensionv1.xsd http://www.garmin.com/xmlschemas/AdventuresExtensions/v1 http://www8.garmin.com/xmlschemas/AdventuresExtensionv1.xsd http://www.garmin.com/xmlschemas/PressureExtension/v1 http://www.garmin.com/xmlschemas/PressureExtensionv1.xsd">
	<metadata>
		<name>2026-08-19 13.23.25</name>
		<link href="http://www.garmin.com">
			<text>Garmin International</text>
		</link>
		<time>2026-08-19T22:09:46Z</time>
	</metadata>
	<trk>
		<name>2026-08-19 13.23.25</name>
		<extensions>
			<gpxx:TrackExtension>
				<gpxx:DisplayColor>Black</gpxx:DisplayColor>
			</gpxx:TrackExtension>
		</extensions>
		<trkseg>
			<trkpt lat="32.404070138931274" lon="-110.72056424617767">
				<ele>2376.60009765625</ele>
				<time>2026-08-19T19:24:31Z</time>
			</trkpt>
			<trkpt lat="32.404096603393555" lon="-110.72056365013123">
				<ele>2376.39990234375</ele>
				<time>2026-08-19T19:24:52Z</time>
			</trkpt>
			<trkpt lat="32.40412092208862" lon="-110.72057497501373">
				<ele>2377.0</ele>
				<time>2026-08-19T19:25:21Z</time>
			</trkpt>
			<trkpt lat="32.404232025146484" lon="-110.72069084644318">
				<ele>2375.39990234375</ele>
				<time>2026-08-19T19:25:38Z</time>
			</trkpt>
			<trkpt lat="32.404314398765564" lon="-110.72080636024475">
				<ele>2372.60009765625</ele>
				<time>2026-08-19T19:25:58Z</time>
			</trkpt>
			<trkpt lat="32.404332876205444" lon="-110.72088754177094">
				<ele>2370.800048828125</ele>
				<time>2026-08-19T19:26:26Z</time>
			</trkpt>
			<trkpt lat="32.4043869972229" lon="-110.72095441818237">
				<ele>2367.800048828125</ele>
				<time>2026-08-19T19:26:44Z</time>
			</trkpt>
			<trkpt lat="32.404563903808594" lon="-110.72090590000153">
				<ele>2364.800048828125</ele>
				<time>2026-08-19T19:27:08Z</time>
			</trkpt>
			<trkpt lat="32.404569029808044" lon="-110.72088897228241">
				<ele>2364.60009765625</ele>
				<time>2026-08-19T19:27:11Z</time>
			</trkpt>
			<trkpt lat="32.40456259250641" lon="-110.72087144851685">
				<ele>2361.39990234375</ele>
				<time>2026-08-19T19:27:18Z</time>
			</trkpt>
			<trkpt lat="32.40456259250641" lon="-110.72087168693542">
				<ele>2361.199951171875</ele>
				<time>2026-08-19T19:27:19Z</time>
			</trkpt>
			<trkpt lat="32.40456223487854" lon="-110.72087121009827">
				<ele>2363.199951171875</ele>
				<time>2026-08-19T19:27:25Z</time>
			</trkpt>
			<trkpt lat="32.40457606315613" lon="-110.72087824344635">
				<ele>2366.199951171875</ele>
				<time>2026-08-19T19:27:59Z</time>
			</trkpt>
			<trkpt lat="32.40465569496155" lon="-110.72094225883484">
				<ele>2363.800048828125</ele>
				<time>2026-08-19T19:28:23Z</time>
			</trkpt>
			<trkpt lat="32.40456283092499" lon="-110.72092735767365">
				<ele>2363.39990234375</ele>
				<time>2026-08-19T19:28:45Z</time>
			</trkpt>
			<trkpt lat="32.404590249061584" lon="-110.72088718414307">
				<ele>2362.800048828125</ele>
				<time>2026-08-19T19:29:25Z</time>
			</trkpt>
			<trkpt lat="32.404622197151184" lon="-110.72091436386108">
				<ele>2359.199951171875</ele>
				<time>2026-08-19T19:29:34Z</time>
			</trkpt>
			<trkpt lat="32.404635310173035" lon="-110.72095060348511">
				<ele>2363.60009765625</ele>
				<time>2026-08-19T19:29:38Z</time>
			</trkpt>
			<trkpt lat="32.40470898151398" lon="-110.72100126743317">
				<ele>2363.60009765625</ele>
				<time>2026-08-19T19:30:13Z</time>
			</trkpt>
			<trkpt lat="32.404767632484436" lon="-110.72101199626923">
				<ele>2364.39990234375</ele>
				<time>2026-08-19T19:30:40Z</time>
			</trkpt>
			<trkpt lat="32.404816031455994" lon="-110.72095954418182">
				<ele>2365.60009765625</ele>
				<time>2026-08-19T19:30:56Z</time>
			</trkpt>
			<trkpt lat="32.404948234558105" lon="-110.72097051143646">
				<ele>2367.0</ele>
				<time>2026-08-19T19:31:16Z</time>
			</trkpt>
			<trkpt lat="32.405009508132935" lon="-110.72098672389984">
				<ele>2370.0</ele>
				<time>2026-08-19T19:31:32Z</time>
			</trkpt>
			<trkpt lat="32.40503394603729" lon="-110.72097635269165">
				<ele>2368.39990234375</ele>
				<time>2026-08-19T19:31:57Z</time>
			</trkpt>
			<trkpt lat="32.4050372838974" lon="-110.72097110748291">
				<ele>2368.199951171875</ele>
				<time>2026-08-19T19:32:33Z</time>
			</trkpt>
			<trkpt lat="32.40502083301544" lon="-110.72099542617798">
				<ele>2368.39990234375</ele>
				<time>2026-08-19T19:32:53Z</time>
			</trkpt>
			<trkpt lat="32.405025362968445" lon="-110.72097277641296">
				<ele>2368.39990234375</ele>
				<time>2026-08-19T19:33:25Z</time>
			</trkpt>
			<trkpt lat="32.40503251552582" lon="-110.72095930576324">
				<ele>2368.800048828125</ele>
				<time>2026-08-19T19:34:10Z</time>
			</trkpt>
			<trkpt lat="32.40503215789795" lon="-110.72096335887909">
				<ele>2367.800048828125</ele>
				<time>2026-08-19T19:34:48Z</time>
			</trkpt>
			<trkpt lat="32.40496504306793" lon="-110.72092616558075">
				<ele>2370.39990234375</ele>
				<time>2026-08-19T19:35:07Z</time>
			</trkpt>
			<trkpt lat="32.40495002269745" lon="-110.7209244966507">
				<ele>2371.199951171875</ele>
				<time>2026-08-19T19:35:09Z</time>
			</trkpt>
			<trkpt lat="32.40484607219696" lon="-110.72090411186218">
				<ele>2367.39990234375</ele>
				<time>2026-08-19T19:35:20Z</time>
			</trkpt>
			<trkpt lat="32.40483868122101" lon="-110.72090888023376">
				<ele>2366.800048828125</ele>
				<time>2026-08-19T19:35:21Z</time>
			</trkpt>
			<trkpt lat="32.40477204322815" lon="-110.7209689617157">
				<ele>2363.800048828125</ele>
				<time>2026-08-19T19:35:36Z</time>
			</trkpt>
			<trkpt lat="32.40486216545105" lon="-110.72095382213593">
				<ele>2364.0</ele>
				<time>2026-08-19T19:35:54Z</time>
			</trkpt>
			<trkpt lat="32.40486407279968" lon="-110.7209894657135">
				<ele>2363.0</ele>
				<time>2026-08-19T19:36:22Z</time>
			</trkpt>
			<trkpt lat="32.40489614009857" lon="-110.72095727920532">
				<ele>2364.800048828125</ele>
				<time>2026-08-19T19:36:53Z</time>
			</trkpt>
			<trkpt lat="32.40488624572754" lon="-110.72097516059875">
				<ele>2365.60009765625</ele>
				<time>2026-08-19T19:37:10Z</time>
			</trkpt>
			<trkpt lat="32.404853105545044" lon="-110.72110939025879">
				<ele>2357.800048828125</ele>
				<time>2026-08-19T19:37:24Z</time>
			</trkpt>
			<trkpt lat="32.404853105545044" lon="-110.72111654281616">
				<ele>2341.800048828125</ele>
				<time>2026-08-19T19:37:25Z</time>
			</trkpt>
			<trkpt lat="32.404852867126465" lon="-110.7211240530014">
				<ele>2325.60009765625</ele>
				<time>2026-08-19T19:37:26Z</time>
			</trkpt>
			<trkpt lat="32.40485143661499" lon="-110.72112846374512">
				<ele>2317.39990234375</ele>
				<time>2026-08-19T19:37:27Z</time>
			</trkpt>
			<trkpt lat="32.40485084056854" lon="-110.72113263607025">
				<ele>2313.39990234375</ele>
				<time>2026-08-19T19:37:28Z</time>
			</trkpt>
			<trkpt lat="32.40485167503357" lon="-110.72114324569702">
				<ele>2320.60009765625</ele>
				<time>2026-08-19T19:37:29Z</time>
			</trkpt>
			<trkpt lat="32.4048513174057" lon="-110.72114825248718">
				<ele>2344.0</ele>
				<time>2026-08-19T19:37:30Z</time>
			</trkpt>
			<trkpt lat="32.4048570394516" lon="-110.721146941185">
				<ele>2365.0</ele>
				<time>2026-08-19T19:37:31Z</time>
			</trkpt>
			<trkpt lat="32.40485870838165" lon="-110.72114932537079">
				<ele>2375.39990234375</ele>
				<time>2026-08-19T19:37:32Z</time>
			</trkpt>
			<trkpt lat="32.40486216545105" lon="-110.72115468978882">
				<ele>2380.800048828125</ele>
				<time>2026-08-19T19:37:33Z</time>
			</trkpt>
			<trkpt lat="32.40483021736145" lon="-110.7212051153183">
				<ele>2376.0</ele>
				<time>2026-08-19T19:37:38Z</time>
			</trkpt>
			<trkpt lat="32.40484046936035" lon="-110.72121751308441">
				<ele>2372.800048828125</ele>
				<time>2026-08-19T19:37:40Z</time>
			</trkpt>
			<trkpt lat="32.40484893321991" lon="-110.7212301492691">
				<ele>2370.0</ele>
				<time>2026-08-19T19:37:42Z</time>
			</trkpt>
			<trkpt lat="32.40487289428711" lon="-110.72127676010132">
				<ele>2365.39990234375</ele>
				<time>2026-08-19T19:37:47Z</time>
			</trkpt>
			<trkpt lat="32.4048935174942" lon="-110.72132515907288">
				<ele>2362.39990234375</ele>
				<time>2026-08-19T19:37:52Z</time>
			</trkpt>
			<trkpt lat="32.40490746498108" lon="-110.72133302688599">
				<ele>2361.60009765625</ele>
				<time>2026-08-19T19:37:54Z</time>
			</trkpt>
			<trkpt lat="32.40492534637451" lon="-110.72133588790894">
				<ele>2358.60009765625</ele>
				<time>2026-08-19T19:38:13Z</time>
			</trkpt>
			<trkpt lat="32.4049186706543" lon="-110.72131848335266">
				<ele>2358.199951171875</ele>
				<time>2026-08-19T19:38:41Z</time>
			</trkpt>
			<trkpt lat="32.404950857162476" lon="-110.72129392623901">
				<ele>2358.800048828125</ele>
				<time>2026-08-19T19:39:00Z</time>
			</trkpt>
			<trkpt lat="32.40499770641327" lon="-110.72128510475159">
				<ele>2358.60009765625</ele>
				<time>2026-08-19T19:39:15Z</time>
			</trkpt>
			<trkpt lat="32.40498769283295" lon="-110.72129511833191">
				<ele>2358.60009765625</ele>
				<time>2026-08-19T19:39:19Z</time>
			</trkpt>
			<trkpt lat="32.40496253967285" lon="-110.7212975025177">
				<ele>2358.60009765625</ele>
				<time>2026-08-19T19:39:21Z</time>
			</trkpt>
			<trkpt lat="32.40492844581604" lon="-110.72131943702698">
				<ele>2358.199951171875</ele>
				<time>2026-08-19T19:39:36Z</time>
			</trkpt>
			<trkpt lat="32.40486013889313" lon="-110.72140097618103">
				<ele>2357.60009765625</ele>
				<time>2026-08-19T19:39:53Z</time>
			</trkpt>
			<trkpt lat="32.40485382080078" lon="-110.72140634059906">
				<ele>2357.800048828125</ele>
				<time>2026-08-19T19:40:14Z</time>
			</trkpt>
			<trkpt lat="32.40476644039154" lon="-110.72148072719574">
				<ele>2356.39990234375</ele>
				<time>2026-08-19T19:40:30Z</time>
			</trkpt>
			<trkpt lat="32.40460276603699" lon="-110.72157418727875">
				<ele>2355.0</ele>
				<time>2026-08-19T19:40:45Z</time>
			</trkpt>
			<trkpt lat="32.404571175575256" lon="-110.72158098220825">
				<ele>2354.60009765625</ele>
				<time>2026-08-19T19:40:48Z</time>
			</trkpt>
			<trkpt lat="32.40455770492554" lon="-110.72157871723175">
				<ele>2354.60009765625</ele>
				<time>2026-08-19T19:40:49Z</time>
			</trkpt>
			<trkpt lat="32.40454304218292" lon="-110.72157418727875">
				<ele>2354.39990234375</ele>
				<time>2026-08-19T19:40:50Z</time>
			</trkpt>
			<trkpt lat="32.404529094696045" lon="-110.72157096862793">
				<ele>2354.199951171875</ele>
				<time>2026-08-19T19:40:51Z</time>
			</trkpt>
			<trkpt lat="32.4045193195343" lon="-110.72156476974487">
				<ele>2354.199951171875</ele>
				<time>2026-08-19T19:40:52Z</time>
			</trkpt>
			<trkpt lat="32.404446482658386" lon="-110.72149062156677">
				<ele>2354.0</ele>
				<time>2026-08-19T19:41:08Z</time>
			</trkpt>
			<trkpt lat="32.40434968471527" lon="-110.72157442569733">
				<ele>2353.800048828125</ele>
				<time>2026-08-19T19:41:22Z</time>
			</trkpt>
			<trkpt lat="32.404274582862854" lon="-110.72173762321472">
				<ele>2351.199951171875</ele>
				<time>2026-08-19T19:41:36Z</time>
			</trkpt>
			<trkpt lat="32.40416729450226" lon="-110.72182142734528">
				<ele>2351.199951171875</ele>
				<time>2026-08-19T19:41:46Z</time>
			</trkpt>
			<trkpt lat="32.40417778491974" lon="-110.72196507453918">
				<ele>2350.0</ele>
				<time>2026-08-19T19:41:59Z</time>
			</trkpt>
			<trkpt lat="32.40418362617493" lon="-110.72218883037567">
				<ele>2346.39990234375</ele>
				<time>2026-08-19T19:42:14Z</time>
			</trkpt>
			<trkpt lat="32.404199719429016" lon="-110.72240233421326">
				<ele>2348.39990234375</ele>
				<time>2026-08-19T19:42:28Z</time>
			</trkpt>
			<trkpt lat="32.404181241989136" lon="-110.72254586219788">
				<ele>2344.39990234375</ele>
				<time>2026-08-19T19:42:38Z</time>
			</trkpt>
			<trkpt lat="32.40415120124817" lon="-110.72257363796234">
				<ele>2342.39990234375</ele>
				<time>2026-08-19T19:42:40Z</time>
			</trkpt>
			<trkpt lat="32.40413475036621" lon="-110.722580909729">
				<ele>2342.0</ele>
				<time>2026-08-19T19:42:41Z</time>
			</trkpt>
			<trkpt lat="32.40412151813507" lon="-110.72258687019348">
				<ele>2341.60009765625</ele>
				<time>2026-08-19T19:42:42Z</time>
			</trkpt>
			<trkpt lat="32.40411138534546" lon="-110.7225911617279">
				<ele>2341.60009765625</ele>
				<time>2026-08-19T19:42:43Z</time>
			</trkpt>
			<trkpt lat="32.404099225997925" lon="-110.72259604930878">
				<ele>2341.800048828125</ele>
				<time>2026-08-19T19:42:44Z</time>
			</trkpt>
			<trkpt lat="32.404091596603394" lon="-110.72259724140167">
				<ele>2342.800048828125</ele>
				<time>2026-08-19T19:42:45Z</time>
			</trkpt>
			<trkpt lat="32.4040549993515" lon="-110.72262525558472">
				<ele>2346.0</ele>
				<time>2026-08-19T19:42:49Z</time>
			</trkpt>
			<trkpt lat="32.40418469905853" lon="-110.72275984287262">
				<ele>2343.39990234375</ele>
				<time>2026-08-19T19:43:06Z</time>
			</trkpt>
			<trkpt lat="32.40419113636017" lon="-110.7227772474289">
				<ele>2343.199951171875</ele>
				<time>2026-08-19T19:43:07Z</time>
			</trkpt>
			<trkpt lat="32.40419554710388" lon="-110.72279036045074">
				<ele>2343.60009765625</ele>
				<time>2026-08-19T19:43:08Z</time>
			</trkpt>
			<trkpt lat="32.4042010307312" lon="-110.72280645370483">
				<ele>2344.0</ele>
				<time>2026-08-19T19:43:09Z</time>
			</trkpt>
			<trkpt lat="32.404202461242676" lon="-110.7228262424469">
				<ele>2344.60009765625</ele>
				<time>2026-08-19T19:43:10Z</time>
			</trkpt>
			<trkpt lat="32.40420436859131" lon="-110.72284042835236">
				<ele>2345.0</ele>
				<time>2026-08-19T19:43:11Z</time>
			</trkpt>
			<trkpt lat="32.40420401096344" lon="-110.72285676002502">
				<ele>2345.199951171875</ele>
				<time>2026-08-19T19:43:12Z</time>
			</trkpt>
			<trkpt lat="32.404213190078735" lon="-110.72295594215393">
				<ele>2342.60009765625</ele>
				<time>2026-08-19T19:43:19Z</time>
			</trkpt>
			<trkpt lat="32.404293060302734" lon="-110.72303652763367">
				<ele>2341.0</ele>
				<time>2026-08-19T19:43:43Z</time>
			</trkpt>
			<trkpt lat="32.4043173789978" lon="-110.72304093837738">
				<ele>2341.800048828125</ele>
				<time>2026-08-19T19:43:48Z</time>
			</trkpt>
			<trkpt lat="32.4044246673584" lon="-110.72296416759491">
				<ele>2342.0</ele>
				<time>2026-08-19T19:44:03Z</time>
			</trkpt>
			<trkpt lat="32.40445101261139" lon="-110.7229118347168">
				<ele>2338.800048828125</ele>
				<time>2026-08-19T19:44:11Z</time>
			</trkpt>
			<trkpt lat="32.40451490879059" lon="-110.72285676002502">
				<ele>2339.199951171875</ele>
				<time>2026-08-19T19:44:30Z</time>
			</trkpt>
			<trkpt lat="32.404501080513" lon="-110.72276997566223">
				<ele>2339.199951171875</ele>
				<time>2026-08-19T19:44:51Z</time>
			</trkpt>
			<trkpt lat="32.40450656414032" lon="-110.7227520942688">
				<ele>2337.800048828125</ele>
				<time>2026-08-19T19:45:26Z</time>
			</trkpt>
			<trkpt lat="32.404534459114075" lon="-110.72273087501526">
				<ele>2336.199951171875</ele>
				<time>2026-08-19T19:45:58Z</time>
			</trkpt>
			<trkpt lat="32.40457475185394" lon="-110.72266817092896">
				<ele>2334.800048828125</ele>
				<time>2026-08-19T19:46:11Z</time>
			</trkpt>
			<trkpt lat="32.404635071754456" lon="-110.72263729572296">
				<ele>2335.0</ele>
				<time>2026-08-19T19:46:22Z</time>
			</trkpt>
			<trkpt lat="32.404701828956604" lon="-110.72259616851807">
				<ele>2335.0</ele>
				<time>2026-08-19T19:46:38Z</time>
			</trkpt>
			<trkpt lat="32.40475630760193" lon="-110.72264564037323">
				<ele>2336.60009765625</ele>
				<time>2026-08-19T19:46:52Z</time>
			</trkpt>
			<trkpt lat="32.404818654060364" lon="-110.72263979911804">
				<ele>2338.60009765625</ele>
				<time>2026-08-19T19:47:05Z</time>
			</trkpt>
			<trkpt lat="32.40483248233795" lon="-110.72258722782135">
				<ele>2339.60009765625</ele>
				<time>2026-08-19T19:47:12Z</time>
			</trkpt>
			<trkpt lat="32.40482139587402" lon="-110.72252762317657">
				<ele>2339.800048828125</ele>
				<time>2026-08-19T19:47:27Z</time>
			</trkpt>
			<trkpt lat="32.40474283695221" lon="-110.72258150577545">
				<ele>2339.800048828125</ele>
				<time>2026-08-19T19:47:43Z</time>
			</trkpt>
			<trkpt lat="32.404590249061584" lon="-110.72267162799835">
				<ele>2338.199951171875</ele>
				<time>2026-08-19T19:48:03Z</time>
			</trkpt>
			<trkpt lat="32.40455651283264" lon="-110.7226711511612">
				<ele>2337.800048828125</ele>
				<time>2026-08-19T19:48:20Z</time>
			</trkpt>
			<trkpt lat="32.404515981674194" lon="-110.72269117832184">
				<ele>2338.0</ele>
				<time>2026-08-19T19:48:52Z</time>
			</trkpt>
			<trkpt lat="32.40434288978577" lon="-110.72274374961853">
				<ele>2339.39990234375</ele>
				<time>2026-08-19T19:49:08Z</time>
			</trkpt>
			<trkpt lat="32.404234766960144" lon="-110.72279798984528">
				<ele>2342.39990234375</ele>
				<time>2026-08-19T19:49:21Z</time>
			</trkpt>
			<trkpt lat="32.404218435287476" lon="-110.72281396389008">
				<ele>2343.800048828125</ele>
				<time>2026-08-19T19:49:31Z</time>
			</trkpt>
			<trkpt lat="32.404213666915894" lon="-110.72279810905457">
				<ele>2345.0</ele>
				<time>2026-08-19T19:49:44Z</time>
			</trkpt>
			<trkpt lat="32.40424299240112" lon="-110.72279465198517">
				<ele>2345.800048828125</ele>
				<time>2026-08-19T19:50:09Z</time>
			</trkpt>
			<trkpt lat="32.40425682067871" lon="-110.72278070449829">
				<ele>2342.800048828125</ele>
				<time>2026-08-19T19:50:20Z</time>
			</trkpt>
			<trkpt lat="32.40425717830658" lon="-110.72278022766113">
				<ele>2342.60009765625</ele>
				<time>2026-08-19T19:50:21Z</time>
			</trkpt>
			<trkpt lat="32.40425717830658" lon="-110.7227852344513">
				<ele>2344.199951171875</ele>
				<time>2026-08-19T19:50:53Z</time>
			</trkpt>
			<trkpt lat="32.40425431728363" lon="-110.72288715839386">
				<ele>2344.39990234375</ele>
				<time>2026-08-19T19:51:06Z</time>
			</trkpt>
			<trkpt lat="32.4042751789093" lon="-110.72284245491028">
				<ele>2346.199951171875</ele>
				<time>2026-08-19T19:51:13Z</time>
			</trkpt>
			<trkpt lat="32.40429067611694" lon="-110.72284209728241">
				<ele>2346.0</ele>
				<time>2026-08-19T19:51:14Z</time>
			</trkpt>
			<trkpt lat="32.404369473457336" lon="-110.72279703617096">
				<ele>2344.199951171875</ele>
				<time>2026-08-19T19:51:19Z</time>
			</trkpt>
			<trkpt lat="32.40451979637146" lon="-110.72273170948029">
				<ele>2340.800048828125</ele>
				<time>2026-08-19T19:51:31Z</time>
			</trkpt>
			<trkpt lat="32.40455448627472" lon="-110.72270119190216">
				<ele>2340.0</ele>
				<time>2026-08-19T19:51:34Z</time>
			</trkpt>
			<trkpt lat="32.404690861701965" lon="-110.72262954711914">
				<ele>2339.0</ele>
				<time>2026-08-19T19:51:51Z</time>
			</trkpt>
			<trkpt lat="32.40484595298767" lon="-110.72266519069672">
				<ele>2342.0</ele>
				<time>2026-08-19T19:52:12Z</time>
			</trkpt>
			<trkpt lat="32.404974937438965" lon="-110.72268402576447">
				<ele>2344.0</ele>
				<time>2026-08-19T19:52:32Z</time>
			</trkpt>
			<trkpt lat="32.405017614364624" lon="-110.72265529632568">
				<ele>2344.0</ele>
				<time>2026-08-19T19:52:36Z</time>
			</trkpt>
			<trkpt lat="32.40515625476837" lon="-110.72265577316284">
				<ele>2344.199951171875</ele>
				<time>2026-08-19T19:52:52Z</time>
			</trkpt>
			<trkpt lat="32.40525949001312" lon="-110.72266030311584">
				<ele>2344.800048828125</ele>
				<time>2026-08-19T19:53:10Z</time>
			</trkpt>
			<trkpt lat="32.40533232688904" lon="-110.72263407707214">
				<ele>2346.0</ele>
				<time>2026-08-19T19:53:31Z</time>
			</trkpt>
			<trkpt lat="32.40533709526062" lon="-110.72263610363007">
				<ele>2340.39990234375</ele>
				<time>2026-08-19T19:53:35Z</time>
			</trkpt>
			<trkpt lat="32.40533709526062" lon="-110.72263658046722">
				<ele>2337.199951171875</ele>
				<time>2026-08-19T19:53:36Z</time>
			</trkpt>
			<trkpt lat="32.405338525772095" lon="-110.7226402759552">
				<ele>2334.800048828125</ele>
				<time>2026-08-19T19:53:39Z</time>
			</trkpt>
			<trkpt lat="32.40534591674805" lon="-110.72265434265137">
				<ele>2341.60009765625</ele>
				<time>2026-08-19T19:53:42Z</time>
			</trkpt>
			<trkpt lat="32.40535092353821" lon="-110.72265899181366">
				<ele>2345.800048828125</ele>
				<time>2026-08-19T19:53:43Z</time>
			</trkpt>
			<trkpt lat="32.40535509586334" lon="-110.7226642370224">
				<ele>2349.0</ele>
				<time>2026-08-19T19:53:44Z</time>
			</trkpt>
			<trkpt lat="32.40536546707153" lon="-110.7226790189743">
				<ele>2352.199951171875</ele>
				<time>2026-08-19T19:53:47Z</time>
			</trkpt>
			<trkpt lat="32.40536904335022" lon="-110.72268259525299">
				<ele>2349.0</ele>
				<time>2026-08-19T19:53:49Z</time>
			</trkpt>
			<trkpt lat="32.405357241630554" lon="-110.7226779460907">
				<ele>2345.39990234375</ele>
				<time>2026-08-19T19:53:58Z</time>
			</trkpt>
			<trkpt lat="32.40533757209778" lon="-110.72270739078522">
				<ele>2342.199951171875</ele>
				<time>2026-08-19T19:54:36Z</time>
			</trkpt>
			<trkpt lat="32.40532112121582" lon="-110.72265923023224">
				<ele>2343.0</ele>
				<time>2026-08-19T19:54:53Z</time>
			</trkpt>
			<trkpt lat="32.40524196624756" lon="-110.7229779958725">
				<ele>2342.39990234375</ele>
				<time>2026-08-19T19:55:30Z</time>
			</trkpt>
			<trkpt lat="32.40545129776001" lon="-110.72277522087097">
				<ele>2346.0</ele>
				<time>2026-08-19T19:55:36Z</time>
			</trkpt>
			<trkpt lat="32.40556764602661" lon="-110.72276520729065">
				<ele>2345.39990234375</ele>
				<time>2026-08-19T19:55:48Z</time>
			</trkpt>
			<trkpt lat="32.40559530258179" lon="-110.7227942943573">
				<ele>2345.60009765625</ele>
				<time>2026-08-19T19:55:59Z</time>
			</trkpt>
			<trkpt lat="32.40572714805603" lon="-110.72279119491577">
				<ele>2345.199951171875</ele>
				<time>2026-08-19T19:56:16Z</time>
			</trkpt>
			<trkpt lat="32.40584468841553" lon="-110.72274816036224">
				<ele>2346.0</ele>
				<time>2026-08-19T19:56:33Z</time>
			</trkpt>
			<trkpt lat="32.40588200092316" lon="-110.72283244132996">
				<ele>2346.199951171875</ele>
				<time>2026-08-19T19:56:49Z</time>
			</trkpt>
			<trkpt lat="32.40591585636139" lon="-110.72287333011627">
				<ele>2347.199951171875</ele>
				<time>2026-08-19T19:57:03Z</time>
			</trkpt>
			<trkpt lat="32.405927777290344" lon="-110.72289144992828">
				<ele>2348.39990234375</ele>
				<time>2026-08-19T19:57:29Z</time>
			</trkpt>
			<trkpt lat="32.405911445617676" lon="-110.72286200523376">
				<ele>2349.0</ele>
				<time>2026-08-19T19:57:46Z</time>
			</trkpt>
			<trkpt lat="32.40582251548767" lon="-110.72275578975677">
				<ele>2346.800048828125</ele>
				<time>2026-08-19T19:58:02Z</time>
			</trkpt>
			<trkpt lat="32.40581274032593" lon="-110.72275233268738">
				<ele>2346.39990234375</ele>
				<time>2026-08-19T19:58:04Z</time>
			</trkpt>
			<trkpt lat="32.40572798252106" lon="-110.7227852344513">
				<ele>2346.39990234375</ele>
				<time>2026-08-19T19:58:21Z</time>
			</trkpt>
			<trkpt lat="32.405494809150696" lon="-110.72272777557373">
				<ele>2345.199951171875</ele>
				<time>2026-08-19T19:58:46Z</time>
			</trkpt>
			<trkpt lat="32.405447244644165" lon="-110.72266459465027">
				<ele>2346.60009765625</ele>
				<time>2026-08-19T19:58:56Z</time>
			</trkpt>
			<trkpt lat="32.405455589294434" lon="-110.7226129770279">
				<ele>2346.60009765625</ele>
				<time>2026-08-19T19:59:11Z</time>
			</trkpt>
			<trkpt lat="32.405511021614075" lon="-110.72253358364105">
				<ele>2347.0</ele>
				<time>2026-08-19T19:59:31Z</time>
			</trkpt>
			<trkpt lat="32.40554070472717" lon="-110.72234463691711">
				<ele>2349.800048828125</ele>
				<time>2026-08-19T19:59:54Z</time>
			</trkpt>
			<trkpt lat="32.4055962562561" lon="-110.72203469276428">
				<ele>2351.800048828125</ele>
				<time>2026-08-19T20:00:26Z</time>
			</trkpt>
			<trkpt lat="32.40561878681183" lon="-110.72194826602936">
				<ele>2345.60009765625</ele>
				<time>2026-08-19T20:00:37Z</time>
			</trkpt>
			<trkpt lat="32.40561842918396" lon="-110.7219363451004">
				<ele>2342.39990234375</ele>
				<time>2026-08-19T20:00:38Z</time>
			</trkpt>
			<trkpt lat="32.40561783313751" lon="-110.72192442417145">
				<ele>2337.800048828125</ele>
				<time>2026-08-19T20:00:39Z</time>
			</trkpt>
			<trkpt lat="32.405633211135864" lon="-110.72190082073212">
				<ele>2341.0</ele>
				<time>2026-08-19T20:00:42Z</time>
			</trkpt>
			<trkpt lat="32.40563690662384" lon="-110.72189652919769">
				<ele>2344.0</ele>
				<time>2026-08-19T20:00:43Z</time>
			</trkpt>
			<trkpt lat="32.405643939971924" lon="-110.72188913822174">
				<ele>2347.60009765625</ele>
				<time>2026-08-19T20:00:46Z</time>
			</trkpt>
			<trkpt lat="32.405648708343506" lon="-110.72186744213104">
				<ele>2350.60009765625</ele>
				<time>2026-08-19T20:00:50Z</time>
			</trkpt>
			<trkpt lat="32.405651569366455" lon="-110.72185969352722">
				<ele>2353.800048828125</ele>
				<time>2026-08-19T20:00:52Z</time>
			</trkpt>
			<trkpt lat="32.40565311908722" lon="-110.72185051441193">
				<ele>2354.60009765625</ele>
				<time>2026-08-19T20:00:54Z</time>
			</trkpt>
			<trkpt lat="32.40568172931671" lon="-110.72175073623657">
				<ele>2358.60009765625</ele>
				<time>2026-08-19T20:01:07Z</time>
			</trkpt>
			<trkpt lat="32.40568506717682" lon="-110.72174596786499">
				<ele>2358.199951171875</ele>
				<time>2026-08-19T20:01:08Z</time>
			</trkpt>
			<trkpt lat="32.40567409992218" lon="-110.7215929031372">
				<ele>2359.39990234375</ele>
				<time>2026-08-19T20:01:32Z</time>
			</trkpt>
			<trkpt lat="32.40565037727356" lon="-110.72151696681976">
				<ele>2362.39990234375</ele>
				<time>2026-08-19T20:01:44Z</time>
			</trkpt>
			<trkpt lat="32.405611753463745" lon="-110.72141194343567">
				<ele>2361.800048828125</ele>
				<time>2026-08-19T20:02:00Z</time>
			</trkpt>
			<trkpt lat="32.40558195114136" lon="-110.72135734558105">
				<ele>2362.199951171875</ele>
				<time>2026-08-19T20:02:06Z</time>
			</trkpt>
			<trkpt lat="32.405579805374146" lon="-110.7213283777237">
				<ele>2363.800048828125</ele>
				<time>2026-08-19T20:02:09Z</time>
			</trkpt>
			<trkpt lat="32.405601263046265" lon="-110.72128343582153">
				<ele>2366.39990234375</ele>
				<time>2026-08-19T20:02:16Z</time>
			</trkpt>
			<trkpt lat="32.405611515045166" lon="-110.72127711772919">
				<ele>2365.800048828125</ele>
				<time>2026-08-19T20:02:17Z</time>
			</trkpt>
			<trkpt lat="32.405659317970276" lon="-110.72125148773193">
				<ele>2365.0</ele>
				<time>2026-08-19T20:02:23Z</time>
			</trkpt>
			<trkpt lat="32.40568566322327" lon="-110.72125506401062">
				<ele>2368.0</ele>
				<time>2026-08-19T20:02:35Z</time>
			</trkpt>
			<trkpt lat="32.40572440624237" lon="-110.72130918502808">
				<ele>2364.60009765625</ele>
				<time>2026-08-19T20:02:57Z</time>
			</trkpt>
			<trkpt lat="32.40578508377075" lon="-110.72138261795044">
				<ele>2369.0</ele>
				<time>2026-08-19T20:03:07Z</time>
			</trkpt>
			<trkpt lat="32.4058073759079" lon="-110.72137796878815">
				<ele>2370.199951171875</ele>
				<time>2026-08-19T20:03:09Z</time>
			</trkpt>
			<trkpt lat="32.40593147277832" lon="-110.72140228748322">
				<ele>2367.800048828125</ele>
				<time>2026-08-19T20:03:20Z</time>
			</trkpt>
			<trkpt lat="32.406015515327454" lon="-110.72146093845367">
				<ele>2367.800048828125</ele>
				<time>2026-08-19T20:03:36Z</time>
			</trkpt>
			<trkpt lat="32.40593731403351" lon="-110.72137546539307">
				<ele>2363.800048828125</ele>
				<time>2026-08-19T20:03:47Z</time>
			</trkpt>
			<trkpt lat="32.405927658081055" lon="-110.72137117385864">
				<ele>2362.199951171875</ele>
				<time>2026-08-19T20:03:50Z</time>
			</trkpt>
			<trkpt lat="32.40592014789581" lon="-110.72136640548706">
				<ele>2363.60009765625</ele>
				<time>2026-08-19T20:03:53Z</time>
			</trkpt>
			<trkpt lat="32.40592014789581" lon="-110.72134613990784">
				<ele>2367.199951171875</ele>
				<time>2026-08-19T20:03:58Z</time>
			</trkpt>
			<trkpt lat="32.405922055244446" lon="-110.72133648395538">
				<ele>2368.199951171875</ele>
				<time>2026-08-19T20:04:00Z</time>
			</trkpt>
			<trkpt lat="32.405874609947205" lon="-110.72133374214172">
				<ele>2370.199951171875</ele>
				<time>2026-08-19T20:04:04Z</time>
			</trkpt>
			<trkpt lat="32.40587615966797" lon="-110.7213454246521">
				<ele>2373.800048828125</ele>
				<time>2026-08-19T20:04:06Z</time>
			</trkpt>
			<trkpt lat="32.40588307380676" lon="-110.72134971618652">
				<ele>2370.39990234375</ele>
				<time>2026-08-19T20:04:14Z</time>
			</trkpt>
			<trkpt lat="32.40588891506195" lon="-110.7213476896286">
				<ele>2369.60009765625</ele>
				<time>2026-08-19T20:04:16Z</time>
			</trkpt>
			<trkpt lat="32.4058974981308" lon="-110.7213523387909">
				<ele>2370.39990234375</ele>
				<time>2026-08-19T20:04:20Z</time>
			</trkpt>
			<trkpt lat="32.405904054641724" lon="-110.72136008739471">
				<ele>2366.60009765625</ele>
				<time>2026-08-19T20:04:28Z</time>
			</trkpt>
			<trkpt lat="32.40590786933899" lon="-110.72136688232422">
				<ele>2365.0</ele>
				<time>2026-08-19T20:04:31Z</time>
			</trkpt>
			<trkpt lat="32.4059122800827" lon="-110.72137427330017">
				<ele>2368.0</ele>
				<time>2026-08-19T20:05:13Z</time>
			</trkpt>
			<trkpt lat="32.40591275691986" lon="-110.72137522697449">
				<ele>2370.0</ele>
				<time>2026-08-19T20:05:17Z</time>
			</trkpt>
			<trkpt lat="32.405949115753174" lon="-110.7214105129242">
				<ele>2369.60009765625</ele>
				<time>2026-08-19T20:05:34Z</time>
			</trkpt>
			<trkpt lat="32.40597069263458" lon="-110.72142934799194">
				<ele>2369.800048828125</ele>
				<time>2026-08-19T20:05:36Z</time>
			</trkpt>
			<trkpt lat="32.40622591972351" lon="-110.72162246704102">
				<ele>2372.60009765625</ele>
				<time>2026-08-19T20:06:02Z</time>
			</trkpt>
			<trkpt lat="32.406434297561646" lon="-110.7216364145279">
				<ele>2375.60009765625</ele>
				<time>2026-08-19T20:06:22Z</time>
			</trkpt>
			<trkpt lat="32.406630754470825" lon="-110.72156608104706">
				<ele>2377.39990234375</ele>
				<time>2026-08-19T20:06:47Z</time>
			</trkpt>
			<trkpt lat="32.40657138824463" lon="-110.72162520885468">
				<ele>2376.60009765625</ele>
				<time>2026-08-19T20:07:04Z</time>
			</trkpt>
			<trkpt lat="32.406564831733704" lon="-110.7216647863388">
				<ele>2376.39990234375</ele>
				<time>2026-08-19T20:07:22Z</time>
			</trkpt>
			<trkpt lat="32.406567454338074" lon="-110.72165012359619">
				<ele>2376.39990234375</ele>
				<time>2026-08-19T20:07:23Z</time>
			</trkpt>
			<trkpt lat="32.406564831733704" lon="-110.72163569927216">
				<ele>2376.39990234375</ele>
				<time>2026-08-19T20:07:24Z</time>
			</trkpt>
			<trkpt lat="32.40654170513153" lon="-110.7216465473175">
				<ele>2376.60009765625</ele>
				<time>2026-08-19T20:07:38Z</time>
			</trkpt>
			<trkpt lat="32.40659248828888" lon="-110.72151231765747">
				<ele>2377.199951171875</ele>
				<time>2026-08-19T20:07:52Z</time>
			</trkpt>
			<trkpt lat="32.40660345554352" lon="-110.7215029001236">
				<ele>2377.199951171875</ele>
				<time>2026-08-19T20:07:53Z</time>
			</trkpt>
			<trkpt lat="32.40661883354187" lon="-110.72149586677551">
				<ele>2377.39990234375</ele>
				<time>2026-08-19T20:07:54Z</time>
			</trkpt>
			<trkpt lat="32.406715989112854" lon="-110.72130918502808">
				<ele>2378.39990234375</ele>
				<time>2026-08-19T20:08:18Z</time>
			</trkpt>
			<trkpt lat="32.4067280292511" lon="-110.72130489349365">
				<ele>2379.199951171875</ele>
				<time>2026-08-19T20:08:26Z</time>
			</trkpt>
			<trkpt lat="32.406736850738525" lon="-110.72129666805267">
				<ele>2379.39990234375</ele>
				<time>2026-08-19T20:08:27Z</time>
			</trkpt>
			<trkpt lat="32.406747341156006" lon="-110.72128820419312">
				<ele>2379.60009765625</ele>
				<time>2026-08-19T20:08:28Z</time>
			</trkpt>
			<trkpt lat="32.40675711631775" lon="-110.72127914428711">
				<ele>2379.60009765625</ele>
				<time>2026-08-19T20:08:29Z</time>
			</trkpt>
			<trkpt lat="32.40676653385162" lon="-110.72126722335815">
				<ele>2379.60009765625</ele>
				<time>2026-08-19T20:08:30Z</time>
			</trkpt>
			<trkpt lat="32.40677464008331" lon="-110.72125601768494">
				<ele>2379.800048828125</ele>
				<time>2026-08-19T20:08:31Z</time>
			</trkpt>
			<trkpt lat="32.40687644481659" lon="-110.72112917900085">
				<ele>2381.199951171875</ele>
				<time>2026-08-19T20:08:50Z</time>
			</trkpt>
			<trkpt lat="32.40703642368317" lon="-110.7210043668747">
				<ele>2381.800048828125</ele>
				<time>2026-08-19T20:09:11Z</time>
			</trkpt>
			<trkpt lat="32.407142996788025" lon="-110.72086441516876">
				<ele>2381.39990234375</ele>
				<time>2026-08-19T20:09:28Z</time>
			</trkpt>
			<trkpt lat="32.407365918159485" lon="-110.72067034244537">
				<ele>2383.199951171875</ele>
				<time>2026-08-19T20:09:55Z</time>
			</trkpt>
			<trkpt lat="32.40749967098236" lon="-110.72044229507446">
				<ele>2385.60009765625</ele>
				<time>2026-08-19T20:10:19Z</time>
			</trkpt>
			<trkpt lat="32.40749943256378" lon="-110.72028768062592">
				<ele>2388.60009765625</ele>
				<time>2026-08-19T20:10:38Z</time>
			</trkpt>
			<trkpt lat="32.407487988471985" lon="-110.72026145458221">
				<ele>2390.0</ele>
				<time>2026-08-19T20:10:57Z</time>
			</trkpt>
			<trkpt lat="32.40747690200806" lon="-110.72026717662811">
				<ele>2388.199951171875</ele>
				<time>2026-08-19T20:11:05Z</time>
			</trkpt>
			<trkpt lat="32.40745997428894" lon="-110.72025763988495">
				<ele>2385.800048828125</ele>
				<time>2026-08-19T20:11:17Z</time>
			</trkpt>
			<trkpt lat="32.407451152801514" lon="-110.72024953365326">
				<ele>2389.39990234375</ele>
				<time>2026-08-19T20:11:24Z</time>
			</trkpt>
			<trkpt lat="32.40736985206604" lon="-110.72015118598938">
				<ele>2391.800048828125</ele>
				<time>2026-08-19T20:12:00Z</time>
			</trkpt>
			<trkpt lat="32.40730667114258" lon="-110.72003400325775">
				<ele>2392.60009765625</ele>
				<time>2026-08-19T20:12:34Z</time>
			</trkpt>
			<trkpt lat="32.40719282627106" lon="-110.71991574764252">
				<ele>2391.199951171875</ele>
				<time>2026-08-19T20:12:55Z</time>
			</trkpt>
			<trkpt lat="32.40712368488312" lon="-110.71992361545563">
				<ele>2391.0</ele>
				<time>2026-08-19T20:13:03Z</time>
			</trkpt>
			<trkpt lat="32.40711307525635" lon="-110.71992754936218">
				<ele>2391.0</ele>
				<time>2026-08-19T20:13:04Z</time>
			</trkpt>
			<trkpt lat="32.40710163116455" lon="-110.71992838382721">
				<ele>2391.199951171875</ele>
				<time>2026-08-19T20:13:05Z</time>
			</trkpt>
			<trkpt lat="32.40704905986786" lon="-110.71994805335999">
				<ele>2392.199951171875</ele>
				<time>2026-08-19T20:13:10Z</time>
			</trkpt>
			<trkpt lat="32.40688109397888" lon="-110.72003257274628">
				<ele>2392.199951171875</ele>
				<time>2026-08-19T20:13:26Z</time>
			</trkpt>
			<trkpt lat="32.4066801071167" lon="-110.72019505500793">
				<ele>2391.800048828125</ele>
				<time>2026-08-19T20:13:46Z</time>
			</trkpt>
			<trkpt lat="32.40662336349487" lon="-110.72025430202484">
				<ele>2391.0</ele>
				<time>2026-08-19T20:13:53Z</time>
			</trkpt>
			<trkpt lat="32.406540751457214" lon="-110.72032558917999">
				<ele>2391.0</ele>
				<time>2026-08-19T20:14:03Z</time>
			</trkpt>
			<trkpt lat="32.406529664993286" lon="-110.72032988071442">
				<ele>2391.0</ele>
				<time>2026-08-19T20:14:04Z</time>
			</trkpt>
			<trkpt lat="32.40643644332886" lon="-110.72037076950073">
				<ele>2389.800048828125</ele>
				<time>2026-08-19T20:14:14Z</time>
			</trkpt>
			<trkpt lat="32.40632772445679" lon="-110.72039484977722">
				<ele>2388.800048828125</ele>
				<time>2026-08-19T20:14:26Z</time>
			</trkpt>
			<trkpt lat="32.40630853176117" lon="-110.72040212154388">
				<ele>2388.800048828125</ele>
				<time>2026-08-19T20:14:27Z</time>
			</trkpt>
			<trkpt lat="32.406294107437134" lon="-110.72040939331055">
				<ele>2388.60009765625</ele>
				<time>2026-08-19T20:14:28Z</time>
			</trkpt>
			<trkpt lat="32.40627896785736" lon="-110.72041285037994">
				<ele>2388.60009765625</ele>
				<time>2026-08-19T20:14:29Z</time>
			</trkpt>
			<trkpt lat="32.406264305114746" lon="-110.72041523456573">
				<ele>2388.39990234375</ele>
				<time>2026-08-19T20:14:30Z</time>
			</trkpt>
			<trkpt lat="32.40618646144867" lon="-110.72045111656189">
				<ele>2387.60009765625</ele>
				<time>2026-08-19T20:14:35Z</time>
			</trkpt>
			<trkpt lat="32.40616691112518" lon="-110.7204577922821">
				<ele>2387.39990234375</ele>
				<time>2026-08-19T20:14:36Z</time>
			</trkpt>
			<trkpt lat="32.406147956848145" lon="-110.7204692363739">
				<ele>2387.39990234375</ele>
				<time>2026-08-19T20:14:37Z</time>
			</trkpt>
			<trkpt lat="32.40612745285034" lon="-110.72047770023346">
				<ele>2387.199951171875</ele>
				<time>2026-08-19T20:14:38Z</time>
			</trkpt>
			<trkpt lat="32.4061062335968" lon="-110.72049105167389">
				<ele>2387.0</ele>
				<time>2026-08-19T20:14:39Z</time>
			</trkpt>
			<trkpt lat="32.40608751773834" lon="-110.72050976753235">
				<ele>2386.800048828125</ele>
				<time>2026-08-19T20:14:40Z</time>
			</trkpt>
			<trkpt lat="32.40607452392578" lon="-110.72052443027496">
				<ele>2386.800048828125</ele>
				<time>2026-08-19T20:14:41Z</time>
			</trkpt>
			<trkpt lat="32.40589225292206" lon="-110.72057735919952">
				<ele>2386.0</ele>
				<time>2026-08-19T20:14:54Z</time>
			</trkpt>
			<trkpt lat="32.405808210372925" lon="-110.72059559822083">
				<ele>2385.0</ele>
				<time>2026-08-19T20:15:02Z</time>
			</trkpt>
			<trkpt lat="32.40579271316528" lon="-110.72060585021973">
				<ele>2384.800048828125</ele>
				<time>2026-08-19T20:15:03Z</time>
			</trkpt>
			<trkpt lat="32.405779242515564" lon="-110.72061002254486">
				<ele>2384.60009765625</ele>
				<time>2026-08-19T20:15:04Z</time>
			</trkpt>
			<trkpt lat="32.40574288368225" lon="-110.72061622142792">
				<ele>2384.199951171875</ele>
				<time>2026-08-19T20:15:07Z</time>
			</trkpt>
			<trkpt lat="32.40572810173035" lon="-110.72061932086945">
				<ele>2384.0</ele>
				<time>2026-08-19T20:15:08Z</time>
			</trkpt>
			<trkpt lat="32.40571427345276" lon="-110.72061955928802">
				<ele>2384.0</ele>
				<time>2026-08-19T20:15:09Z</time>
			</trkpt>
			<trkpt lat="32.40565836429596" lon="-110.72061026096344">
				<ele>2383.60009765625</ele>
				<time>2026-08-19T20:15:14Z</time>
			</trkpt>
			<trkpt lat="32.40552628040314" lon="-110.72057735919952">
				<ele>2382.60009765625</ele>
				<time>2026-08-19T20:15:25Z</time>
			</trkpt>
			<trkpt lat="32.40551722049713" lon="-110.72057104110718">
				<ele>2382.60009765625</ele>
				<time>2026-08-19T20:15:26Z</time>
			</trkpt>
			<trkpt lat="32.40536034107208" lon="-110.72046363353729">
				<ele>2381.39990234375</ele>
				<time>2026-08-19T20:15:42Z</time>
			</trkpt>
			<trkpt lat="32.405235290527344" lon="-110.7203756570816">
				<ele>2380.800048828125</ele>
				<time>2026-08-19T20:15:55Z</time>
			</trkpt>
			<trkpt lat="32.40514898300171" lon="-110.72027158737183">
				<ele>2381.39990234375</ele>
				<time>2026-08-19T20:16:06Z</time>
			</trkpt>
			<trkpt lat="32.404908418655396" lon="-110.72004246711731">
				<ele>2381.39990234375</ele>
				<time>2026-08-19T20:16:33Z</time>
			</trkpt>
			<trkpt lat="32.404576778411865" lon="-110.71993458271027">
				<ele>2383.199951171875</ele>
				<time>2026-08-19T20:16:57Z</time>
			</trkpt>
			<trkpt lat="32.40441286563873" lon="-110.72002971172333">
				<ele>2385.0</ele>
				<time>2026-08-19T20:17:14Z</time>
			</trkpt>
			<trkpt lat="32.404274702072144" lon="-110.72023022174835">
				<ele>2384.800048828125</ele>
				<time>2026-08-19T20:17:31Z</time>
			</trkpt>
			<trkpt lat="32.40412724018097" lon="-110.72043490409851">
				<ele>2384.199951171875</ele>
				<time>2026-08-19T20:17:46Z</time>
			</trkpt>
			<trkpt lat="32.40410554409027" lon="-110.72049164772034">
				<ele>2383.199951171875</ele>
				<time>2026-08-19T20:17:59Z</time>
			</trkpt>
			<trkpt lat="32.40411305427551" lon="-110.72048449516296">
				<ele>2383.199951171875</ele>
				<time>2026-08-19T20:18:01Z</time>
			</trkpt>
			<trkpt lat="32.40421438217163" lon="-110.72046315670013">
				<ele>2383.39990234375</ele>
				<time>2026-08-19T20:18:13Z</time>
			</trkpt>
			<trkpt lat="32.40425956249237" lon="-110.72044706344604">
				<ele>2380.0</ele>
				<time>2026-08-19T20:18:23Z</time>
			</trkpt>
			<trkpt lat="32.404261231422424" lon="-110.72044217586517">
				<ele>2383.199951171875</ele>
				<time>2026-08-19T20:18:35Z</time>
			</trkpt>
			<trkpt lat="32.404263615608215" lon="-110.72044456005096">
				<ele>2384.0</ele>
				<time>2026-08-19T20:18:37Z</time>
			</trkpt>
			<trkpt lat="32.40427100658417" lon="-110.72044503688812">
				<ele>2383.199951171875</ele>
				<time>2026-08-19T20:18:41Z</time>
			</trkpt>
			<trkpt lat="32.40432631969452" lon="-110.72045433521271">
				<ele>2380.800048828125</ele>
				<time>2026-08-19T20:18:56Z</time>
			</trkpt>
			<trkpt lat="32.404319405555725" lon="-110.72045946121216">
				<ele>2384.0</ele>
				<time>2026-08-19T20:19:17Z</time>
			</trkpt>
			<trkpt lat="32.40419626235962" lon="-110.72047245502472">
				<ele>2383.0</ele>
				<time>2026-08-19T20:19:32Z</time>
			</trkpt>
			<trkpt lat="32.40415596961975" lon="-110.72047173976898">
				<ele>2382.800048828125</ele>
				<time>2026-08-19T20:19:37Z</time>
			</trkpt>
			<trkpt lat="32.404104471206665" lon="-110.72040033340454">
				<ele>2382.800048828125</ele>
				<time>2026-08-19T20:19:45Z</time>
			</trkpt>
			<trkpt lat="32.40407466888428" lon="-110.72026884555817">
				<ele>2383.39990234375</ele>
				<time>2026-08-19T20:19:55Z</time>
			</trkpt>
			<trkpt lat="32.40416431427002" lon="-110.72016191482544">
				<ele>2383.60009765625</ele>
				<time>2026-08-19T20:20:09Z</time>
			</trkpt>
			<trkpt lat="32.404366850852966" lon="-110.72017514705658">
				<ele>2384.39990234375</ele>
				<time>2026-08-19T20:20:26Z</time>
			</trkpt>
			<trkpt lat="32.404505491256714" lon="-110.72006452083588">
				<ele>2384.800048828125</ele>
				<time>2026-08-19T20:20:40Z</time>
			</trkpt>
			<trkpt lat="32.40451741218567" lon="-110.72004008293152">
				<ele>2385.0</ele>
				<time>2026-08-19T20:20:42Z</time>
			</trkpt>
			<trkpt lat="32.404486298561096" lon="-110.72002255916595">
				<ele>2385.199951171875</ele>
				<time>2026-08-19T20:20:46Z</time>
			</trkpt>
			<trkpt lat="32.404296875" lon="-110.72012484073639">
				<ele>2386.199951171875</ele>
				<time>2026-08-19T20:21:04Z</time>
			</trkpt>
			<trkpt lat="32.40412354469299" lon="-110.72013521194458">
				<ele>2384.39990234375</ele>
				<time>2026-08-19T20:21:18Z</time>
			</trkpt>
			<trkpt lat="32.404057264328" lon="-110.72029387950897">
				<ele>2384.199951171875</ele>
				<time>2026-08-19T20:21:32Z</time>
			</trkpt>
			<trkpt lat="32.40403914451599" lon="-110.72036266326904">
				<ele>2384.199951171875</ele>
				<time>2026-08-19T20:21:51Z</time>
			</trkpt>
			<trkpt lat="32.40401828289032" lon="-110.72042047977448">
				<ele>2384.0</ele>
				<time>2026-08-19T20:22:25Z</time>
			</trkpt>
			<trkpt lat="32.403998255729675" lon="-110.72041094303131">
				<ele>2384.0</ele>
				<time>2026-08-19T20:22:33Z</time>
			</trkpt>
			<trkpt lat="32.404003620147705" lon="-110.72036814689636">
				<ele>2383.800048828125</ele>
				<time>2026-08-19T20:22:43Z</time>
			</trkpt>
		</trkseg>
	</trk>
</gpx>
